[{"OBJECT_NAME":"AEROCUBE 5C","OBJECT_ID":"2015-058B","EPOCH":"2026-03-09T17:05:14.563104","MEAN_MOTION":14.90857126,"ECCENTRICITY":0.01306722,"INCLINATION":64.7674,"RA_OF_ASC_NODE":211.9094,"ARG_OF_PERICENTER":102.486,"MEAN_ANOMALY":259.0908,"EPHEMERIS_TYPE":0,"CLASSIFICATION_TYPE":"U","NORAD_CAT_ID":40965,"ELEMENT_SET_NO":999,"REV_AT_EPOCH":35082,"BSTAR":0.0004279104,"MEAN_MOTION_DOT":4.804e-5,"MEAN_MOTION_DDOT":0},{"OBJECT_NAME":"GENA-OT","OBJECT_ID":"2025-276DN","EPOCH":"2026-03-09T17:45:26.597088","MEAN_MOTION":15.19877093,"ECCENTRICITY":0.00019544,"INCLINATION":97.4281,"RA_OF_ASC_NODE":144.1751,"ARG_OF_PERICENTER":148.5398,"MEAN_ANOMALY":211.5954,"EPHEMERIS_TYPE":0,"CLASSIFICATION_TYPE":"U","NORAD_CAT_ID":66774,"ELEMENT_SET_NO":999,"REV_AT_EPOCH":1533,"BSTAR":0.00037147435,"MEAN_MOTION_DOT":7.907e-5,"MEAN_MOTION_DDOT":0}]
